{
    "links": {
        "self": "http://www.neowsapp.com/rest/v1/neo/3589717?api_key=iIulBulltgU6a56xZRHN4H3l9WmuAYTsLGpBGhQ2"
    },
    "id": "3589717",
    "neo_reference_id": "3589717",
    "name": "(2011 WW95)",
    "designation": "2011 WW95",
    "nasa_jpl_url": "http://ssd.jpl.nasa.gov/sbdb.cgi?sstr=3589717",
    "absolute_magnitude_h": 23.2,
    "estimated_diameter": {
        "kilometers": {
            "estimated_diameter_min": 0.0608912622,
            "estimated_diameter_max": 0.1361570015
        },
        "meters": {
            "estimated_diameter_min": 60.8912622106,
            "estimated_diameter_max": 136.1570015386
        },
        "miles": {
            "estimated_diameter_min": 0.0378360645,
            "estimated_diameter_max": 0.0846040122
        },
        "feet": {
            "estimated_diameter_min": 199.7744887109,
            "estimated_diameter_max": 446.7093369279
        }
    },
    "is_potentially_hazardous_asteroid": false,
    "close_approach_data": [
        {
            "close_approach_date": "2011-12-04",
            "close_approach_date_full": "2011-Dec-04 19:05",
            "epoch_date_close_approach": 1323025500000,
            "relative_velocity": {
                "kilometers_per_second": "18.8227222619",
                "kilometers_per_hour": "67761.8001427158",
                "miles_per_hour": "42104.5474275669"
            },
            "miss_distance": {
                "astronomical": "0.1866808568",
                "lunar": "72.6188532952",
                "kilometers": "27927058.547055016",
                "miles": "17353069.5086145808"
            },
            "orbiting_body": "Earth"
        },
        {
            "close_approach_date": "2012-05-19",
            "close_approach_date_full": "2012-May-19 20:46",
            "epoch_date_close_approach": 1337460360000,
            "relative_velocity": {
                "kilometers_per_second": "19.3737702155",
                "kilometers_per_hour": "69745.5727758464",
                "miles_per_hour": "43337.1865950808"
            },
            "miss_distance": {
                "astronomical": "0.3464968226",
                "lunar": "134.7872639914",
                "kilometers": "51835186.622727862",
                "miles": "32208891.4212220156"
            },
            "orbiting_body": "Earth"
        }
    ],
    "orbital_data": {
        "orbit_id": "5",
        "orbit_determination_date": "2017-04-06 08:51:48",
        "first_observation_date": "2011-11-30",
        "last_observation_date": "2011-12-05",
        "data_arc_in_days": 5,
        "observations_used": 20,
        "orbit_uncertainty": "9",
        "minimum_orbit_intersection": ".185659",
        "jupiter_tisserand_invariant": "4.779",
        "epoch_osculation": "2455896.5",
        "eccentricity": ".2062054464357298",
        "semi_major_axis": "1.306344357017464",
        "inclination": "35.70013732189565",
        "ascending_node_longitude": "248.0050614759564",
        "orbital_period": "545.362079857182",
        "perihelion_distance": "1.036969035679881",
        "perihelion_argument": "253.5567959792301",
        "aphelion_distance": "1.575719678355046",
        "perihelion_time": "2455971.345135927870",
        "mean_anomaly": "310.593834941569",
        "mean_motion": ".6601119023425241",
        "equinox": "J2000",
        "orbit_class": {
            "orbit_class_type": "AMO",
            "orbit_class_description": "Near-Earth asteroid orbits similar to that of 1221 Amor",
            "orbit_class_range": "1.017 AU < q (perihelion) < 1.3 AU"
        }
    },
    "is_sentry_object": false
}